[{"OBJECT_NAME":"FORMOSAT 7-2","OBJECT_ID":"2019-036N","EPOCH":"2026-04-27T03:30:26.858016","MEAN_MOTION":14.96279396,"ECCENTRICITY":3.52e-5,"INCLINATION":23.9969,"RA_OF_ASC_NODE":132.8536,"ARG_OF_PERICENTER":346.6098,"MEAN_ANOMALY":13.4393,"EPHEMERIS_TYPE":0,"CLASSIFICATION_TYPE":"U","NORAD_CAT_ID":44351,"ELEMENT_SET_NO":999,"REV_AT_EPOCH":37593,"BSTAR":0.00021505,"MEAN_MOTION_DOT":2.791e-5,"MEAN_MOTION_DDOT":0},{"OBJECT_NAME":"FORMOSAT 7-6","OBJECT_ID":"2019-036Q","EPOCH":"2026-04-26T21:06:25.247232","MEAN_MOTION":14.96285191,"ECCENTRICITY":8.81e-5,"INCLINATION":23.9986,"RA_OF_ASC_NODE":315.4749,"ARG_OF_PERICENTER":206.9376,"MEAN_ANOMALY":153.1079,"EPHEMERIS_TYPE":0,"CLASSIFICATION_TYPE":"U","NORAD_CAT_ID":44353,"ELEMENT_SET_NO":999,"REV_AT_EPOCH":37412,"BSTAR":0.000243108,"MEAN_MOTION_DOT":3.116e-5,"MEAN_MOTION_DDOT":0},{"OBJECT_NAME":"FORMOSAT 7-5","OBJECT_ID":"2019-036V","EPOCH":"2026-04-27T01:21:54.280800","MEAN_MOTION":14.9628945,"ECCENTRICITY":3.06e-5,"INCLINATION":23.9986,"RA_OF_ASC_NODE":253.0284,"ARG_OF_PERICENTER":19.1822,"MEAN_ANOMALY":340.869,"EPHEMERIS_TYPE":0,"CLASSIFICATION_TYPE":"U","NORAD_CAT_ID":44358,"ELEMENT_SET_NO":999,"REV_AT_EPOCH":37468,"BSTAR":0.00024386,"MEAN_MOTION_DOT":3.125e-5,"MEAN_MOTION_DDOT":0},{"OBJECT_NAME":"METEOR-M2 2","OBJECT_ID":"2019-038A","EPOCH":"2026-04-27T05:53:47.927040","MEAN_MOTION":14.24351246,"ECCENTRICITY":0.0001773,"INCLINATION":98.9132,"RA_OF_ASC_NODE":103.7859,"ARG_OF_PERICENTER":126.2388,"MEAN_ANOMALY":233.8954,"EPHEMERIS_TYPE":0,"CLASSIFICATION_TYPE":"U","NORAD_CAT_ID":44387,"ELEMENT_SET_NO":999,"REV_AT_EPOCH":35404,"BSTAR":9.2946e-5,"MEAN_MOTION_DOT":1.69e-6,"MEAN_MOTION_DDOT":0},{"OBJECT_NAME":"COSMOS 2535","OBJECT_ID":"2019-039A","EPOCH":"2026-04-27T04:02:47.660352","MEAN_MOTION":14.91836604,"ECCENTRICITY":0.000897,"INCLINATION":97.5805,"RA_OF_ASC_NODE":147.2785,"ARG_OF_PERICENTER":32.8463,"MEAN_ANOMALY":327.3312,"EPHEMERIS_TYPE":0,"CLASSIFICATION_TYPE":"U","NORAD_CAT_ID":44421,"ELEMENT_SET_NO":999,"REV_AT_EPOCH":36903,"BSTAR":0.00012275,"MEAN_MOTION_DOT":1.186e-5,"MEAN_MOTION_DDOT":0},{"OBJECT_NAME":"GLOBAL-4","OBJECT_ID":"2019-054E","EPOCH":"2026-04-27T04:05:19.391712","MEAN_MOTION":15.59759747,"ECCENTRICITY":0.0005645,"INCLINATION":45.0061,"RA_OF_ASC_NODE":169.6968,"ARG_OF_PERICENTER":340.8034,"MEAN_ANOMALY":19.2648,"EPHEMERIS_TYPE":0,"CLASSIFICATION_TYPE":"U","NORAD_CAT_ID":44499,"ELEMENT_SET_NO":999,"REV_AT_EPOCH":37238,"BSTAR":0.00061908,"MEAN_MOTION_DOT":0.00050785,"MEAN_MOTION_DDOT":0},{"OBJECT_NAME":"ZY-1 02D","OBJECT_ID":"2019-059A","EPOCH":"2026-04-27T04:26:24.626400","MEAN_MOTION":14.35468064,"ECCENTRICITY":1.72e-5,"INCLINATION":98.3222,"RA_OF_ASC_NODE":180.4672,"ARG_OF_PERICENTER":330.7506,"MEAN_ANOMALY":29.367,"EPHEMERIS_TYPE":0,"CLASSIFICATION_TYPE":"U","NORAD_CAT_ID":44528,"ELEMENT_SET_NO":999,"REV_AT_EPOCH":34702,"BSTAR":2.8992e-5,"MEAN_MOTION_DOT":4.1e-7,"MEAN_MOTION_DDOT":0},{"OBJECT_NAME":"TAURUS-1 (JINNIUZUO 1)","OBJECT_ID":"2019-059C","EPOCH":"2026-04-27T04:29:06.144288","MEAN_MOTION":14.71518174,"ECCENTRICITY":0.0009883,"INCLINATION":98.6372,"RA_OF_ASC_NODE":278.8856,"ARG_OF_PERICENTER":112.8891,"MEAN_ANOMALY":247.3359,"EPHEMERIS_TYPE":0,"CLASSIFICATION_TYPE":"U","NORAD_CAT_ID":44530,"ELEMENT_SET_NO":999,"REV_AT_EPOCH":35114,"BSTAR":0.0012251,"MEAN_MOTION_DOT":7.562e-5,"MEAN_MOTION_DDOT":0},{"OBJECT_NAME":"ZHUHAI-1 03B","OBJECT_ID":"2019-060C","EPOCH":"2026-04-27T03:21:07.157952","MEAN_MOTION":15.51203017,"ECCENTRICITY":0.0010134,"INCLINATION":97.5464,"RA_OF_ASC_NODE":272.2852,"ARG_OF_PERICENTER":141.4862,"MEAN_ANOMALY":218.7115,"EPHEMERIS_TYPE":0,"CLASSIFICATION_TYPE":"U","NORAD_CAT_ID":44536,"ELEMENT_SET_NO":999,"REV_AT_EPOCH":36840,"BSTAR":0.00058628,"MEAN_MOTION_DOT":0.00034352,"MEAN_MOTION_DDOT":0},{"OBJECT_NAME":"ZHUHAI-1 03C","OBJECT_ID":"2019-060D","EPOCH":"2026-04-27T04:13:24.877632","MEAN_MOTION":15.85781591,"ECCENTRICITY":0.0003357,"INCLINATION":97.5498,"RA_OF_ASC_NODE":283.8991,"ARG_OF_PERICENTER":95.6175,"MEAN_ANOMALY":264.5478,"EPHEMERIS_TYPE":0,"CLASSIFICATION_TYPE":"U","NORAD_CAT_ID":44537,"ELEMENT_SET_NO":999,"REV_AT_EPOCH":36912,"BSTAR":0.0010378,"MEAN_MOTION_DOT":0.00258194,"MEAN_MOTION_DDOT":0},{"OBJECT_NAME":"ZHUHAI-1 03D","OBJECT_ID":"2019-060E","EPOCH":"2026-04-27T05:31:42.870720","MEAN_MOTION":15.46824561,"ECCENTRICITY":0.000889,"INCLINATION":97.5324,"RA_OF_ASC_NODE":264.9499,"ARG_OF_PERICENTER":129.7222,"MEAN_ANOMALY":230.4812,"EPHEMERIS_TYPE":0,"CLASSIFICATION_TYPE":"U","NORAD_CAT_ID":44538,"ELEMENT_SET_NO":999,"REV_AT_EPOCH":36819,"BSTAR":0.00073483,"MEAN_MOTION_DOT":0.00036956,"MEAN_MOTION_DDOT":0},{"OBJECT_NAME":"ZHUHAI-1 03E","OBJECT_ID":"2019-060F","EPOCH":"2026-04-27T04:16:36.086016","MEAN_MOTION":15.39355848,"ECCENTRICITY":0.0006092,"INCLINATION":97.5541,"RA_OF_ASC_NODE":265.4455,"ARG_OF_PERICENTER":193.0059,"MEAN_ANOMALY":167.103,"EPHEMERIS_TYPE":0,"CLASSIFICATION_TYPE":"U","NORAD_CAT_ID":44539,"ELEMENT_SET_NO":999,"REV_AT_EPOCH":36791,"BSTAR":0.00056026,"MEAN_MOTION_DOT":0.00021849,"MEAN_MOTION_DDOT":0},{"OBJECT_NAME":"ATLAS 5 CENTAUR DEB","OBJECT_ID":"2018-079BG","EPOCH":"2026-04-26T10:04:52.295808","MEAN_MOTION":1.77432399,"ECCENTRICITY":0.4734942,"INCLINATION":13.5699,"RA_OF_ASC_NODE":43.5238,"ARG_OF_PERICENTER":290.9294,"MEAN_ANOMALY":25.7413,"EPHEMERIS_TYPE":0,"CLASSIFICATION_TYPE":"U","NORAD_CAT_ID":44694,"ELEMENT_SET_NO":999,"REV_AT_EPOCH":4564,"BSTAR":0,"MEAN_MOTION_DOT":-9.5e-7,"MEAN_MOTION_DDOT":0},{"OBJECT_NAME":"GAOFEN-7","OBJECT_ID":"2019-072A","EPOCH":"2026-04-27T03:53:09.356640","MEAN_MOTION":15.21451382,"ECCENTRICITY":0.0015555,"INCLINATION":97.2465,"RA_OF_ASC_NODE":180.5365,"ARG_OF_PERICENTER":205.7372,"MEAN_ANOMALY":154.3092,"EPHEMERIS_TYPE":0,"CLASSIFICATION_TYPE":"U","NORAD_CAT_ID":44703,"ELEMENT_SET_NO":999,"REV_AT_EPOCH":35988,"BSTAR":0.00019677,"MEAN_MOTION_DOT":4.367e-5,"MEAN_MOTION_DDOT":0},{"OBJECT_NAME":"JILIN-1 GAOFEN 2A","OBJECT_ID":"2019-075A","EPOCH":"2026-04-27T05:04:39.977184","MEAN_MOTION":15.37908316,"ECCENTRICITY":0.0005052,"INCLINATION":97.4966,"RA_OF_ASC_NODE":199.8671,"ARG_OF_PERICENTER":259.2758,"MEAN_ANOMALY":100.7918,"EPHEMERIS_TYPE":0,"CLASSIFICATION_TYPE":"U","NORAD_CAT_ID":44777,"ELEMENT_SET_NO":999,"REV_AT_EPOCH":35704,"BSTAR":0.00047737,"MEAN_MOTION_DOT":0.00017734,"MEAN_MOTION_DDOT":0},{"OBJECT_NAME":"NINGXIA-1 1","OBJECT_ID":"2019-076A","EPOCH":"2026-04-27T03:51:33.265152","MEAN_MOTION":14.02032058,"ECCENTRICITY":0.0012102,"INCLINATION":45.0068,"RA_OF_ASC_NODE":47.876,"ARG_OF_PERICENTER":277.1284,"MEAN_ANOMALY":82.8174,"EPHEMERIS_TYPE":0,"CLASSIFICATION_TYPE":"U","NORAD_CAT_ID":44779,"ELEMENT_SET_NO":999,"REV_AT_EPOCH":33069,"BSTAR":5.1286e-5,"MEAN_MOTION_DOT":-5.1e-7,"MEAN_MOTION_DDOT":0},{"OBJECT_NAME":"NINGXIA-1 5","OBJECT_ID":"2019-076E","EPOCH":"2026-04-27T04:13:00.843744","MEAN_MOTION":14.02016113,"ECCENTRICITY":0.001189,"INCLINATION":45.0064,"RA_OF_ASC_NODE":47.1694,"ARG_OF_PERICENTER":267.0202,"MEAN_ANOMALY":92.9272,"EPHEMERIS_TYPE":0,"CLASSIFICATION_TYPE":"U","NORAD_CAT_ID":44783,"ELEMENT_SET_NO":999,"REV_AT_EPOCH":33061,"BSTAR":4.8293e-5,"MEAN_MOTION_DOT":-5.5e-7,"MEAN_MOTION_DDOT":0}]
