FORMOSAT 7-2            
1 44351U 19036N   26117.14614419  .00002791  00000+0  21505-3 0  9997
2 44351  23.9969 132.8536 0000352 346.6098  13.4393 14.96279396375937
FORMOSAT 7-6            
1 44353U 19036Q   26116.87945888  .00003116  00000+0  24311-3 0  9995
2 44353  23.9986 315.4749 0000881 206.9376 153.1079 14.96285191374120
FORMOSAT 7-5            
1 44358U 19036V   26117.05687825  .00003125  00000+0  24386-3 0  9997
2 44358  23.9986 253.0284 0000306  19.1822 340.8690 14.96289450374685
METEOR-M2 2             
1 44387U 19038A   26117.24569360  .00000169  00000+0  92946-4 0  9998
2 44387  98.9132 103.7859 0001773 126.2388 233.8954 14.24351246354043
COSMOS 2535             
1 44421U 19039A   26117.16860718  .00001186  00000+0  12275-3 0  9996
2 44421  97.5805 147.2785 0008970  32.8463 327.3312 14.91836604369039
GLOBAL-4                
1 44499U 19054E   26117.17036333  .00050785  00000+0  61908-3 0  9993
2 44499  45.0061 169.6968 0005645 340.8034  19.2648 15.59759747372387
ZY-1 02D                
1 44528U 19059A   26117.18500725  .00000041  00000+0  28992-4 0  9990
2 44528  98.3222 180.4672 0000172 330.7506  29.3670 14.35468064347027
TAURUS-1 (JINNIUZUO 1)  
1 44530U 19059C   26117.18687667  .00007562  00000+0  12251-2 0  9998
2 44530  98.6372 278.8856 0009883 112.8891 247.3359 14.71518174351141
ZHUHAI-1 03B            
1 44536U 19060C   26117.13966618  .00034352  00000+0  58628-3 0  9993
2 44536  97.5464 272.2852 0010134 141.4862 218.7115 15.51203017368403
ZHUHAI-1 03C            
1 44537U 19060D   26117.17598238  .00258194  00000+0  10378-2 0  9998
2 44537  97.5498 283.8991 0003357  95.6175 264.5478 15.85781591369125
ZHUHAI-1 03D            
1 44538U 19060E   26117.23035730  .00036956  00000+0  73483-3 0  9996
2 44538  97.5324 264.9499 0008890 129.7222 230.4812 15.46824561368198
ZHUHAI-1 03E            
1 44539U 19060F   26117.17819544  .00021849  00000+0  56026-3 0  9992
2 44539  97.5541 265.4455 0006092 193.0059 167.1030 15.39355848367918
ATLAS 5 CENTAUR DEB     
1 44694U 18079BG  26116.42004972 -.00000095  00000+0  00000+0 0  9999
2 44694  13.5699  43.5238 4734942 290.9294  25.7413  1.77432399 45641
GAOFEN-7                
1 44703U 19072A   26117.16191385  .00004367  00000+0  19677-3 0  9990
2 44703  97.2465 180.5365 0015555 205.7372 154.3092 15.21451382359887
JILIN-1 GAOFEN 2A       
1 44777U 19075A   26117.21157381  .00017734  00000+0  47737-3 0  9998
2 44777  97.4966 199.8671 0005052 259.2758 100.7918 15.37908316357041
NINGXIA-1 1             
1 44779U 19076A   26117.16080168 -.00000051  00000+0  51286-4 0  9993
2 44779  45.0068  47.8760 0012102 277.1284  82.8174 14.02032058330691
NINGXIA-1 5             
1 44783U 19076E   26117.17570421 -.00000055  00000+0  48293-4 0  9993
2 44783  45.0064  47.1694 0011890 267.0202  92.9272 14.02016113330619
